LEMUR-2-ANDIS           
1 42838U 17042P   26068.55941107  .00023598  00000+0  79875-3 0  9998
2 42838  97.3659 249.7950 0009101   4.3248 355.8070 15.30557934473198
STARLINK-32421          
1 61628U 24191H   26067.30702964 -.00001831  00000+0 -57062-4 0  9990
2 61628  42.9973 162.4259 0000402 213.4244 146.6582 15.27576324 77327
